[{"OBJECT_NAME":"COSMOS 2504","OBJECT_ID":"2015-020D","EPOCH":"2026-03-09T23:13:36.834816","MEAN_MOTION":13.6133253,"ECCENTRICITY":0.06077174,"INCLINATION":82.5183,"RA_OF_ASC_NODE":307.9923,"ARG_OF_PERICENTER":183.8961,"MEAN_ANOMALY":175.7346,"EPHEMERIS_TYPE":0,"CLASSIFICATION_TYPE":"U","NORAD_CAT_ID":40555,"ELEMENT_SET_NO":999,"REV_AT_EPOCH":53669,"BSTAR":0.00011649917,"MEAN_MOTION_DOT":3.31e-6,"MEAN_MOTION_DDOT":0},{"OBJECT_NAME":"DELTA 1 DEB","OBJECT_ID":"1975-052F","EPOCH":"2026-03-09T15:25:28.493760","MEAN_MOTION":12.61211569,"ECCENTRICITY":0.0439949,"INCLINATION":99.4392,"RA_OF_ASC_NODE":120.4386,"ARG_OF_PERICENTER":69.8147,"MEAN_ANOMALY":56.355,"EPHEMERIS_TYPE":0,"CLASSIFICATION_TYPE":"U","NORAD_CAT_ID":21270,"ELEMENT_SET_NO":999,"REV_AT_EPOCH":59662,"BSTAR":0.00066655,"MEAN_MOTION_DOT":1.41e-6,"MEAN_MOTION_DDOT":0}]
